{"type": "FeatureCollection", "features": [ {"type": "Feature", "properties": {"norad_id": 34875, "name": "COSMOS 2251 DEB", "group": "cosmos-2251-debris", "lat": -10.752087783487953, "lon": -28.497499168824625, "alt_km": 731.1040565670401, "timestamp": "2025-12-17T23:38:07.248805+00:00", "meta": {"OBJECT_NAME": "COSMOS 2251 DEB", "OBJECT_ID": "1993-036ACN", "EPOCH": "2025-12-17T05:20:39.031872", "MEAN_MOTION": 14.48941246, "ECCENTRICITY": 0.00162186, "INCLINATION": 74.0434, "RA_OF_ASC_NODE": 149.8155, "ARG_OF_PERICENTER": 273.2302, "MEAN_ANOMALY": 264.2172, "EPHEMERIS_TYPE": 0, "CLASSIFICATION_TYPE": "U", "NORAD_CAT_ID": 34875, "ELEMENT_SET_NO": 999, "REV_AT_EPOCH": 87820, "BSTAR": 0.00035804654, "MEAN_MOTION_DOT": 1.331e-05, "MEAN_MOTION_DDOT": 0}, "tle": {"line1": "1 34875U 93036ACN 25351.22267398  .00001331  00000+0  35805-3 0  9994", "line2": "2 34875  74.0434 149.8155 0016218 273.2302 264.2172 14.48941246878203"}}, "geometry": {"type": "Point", "coordinates": [-28.497499168824625, -10.752087783487953]}}, {"type": "Feature", "properties": {"norad_id": 34878, "name": "COSMOS 2251 DEB", "group": "cosmos-2251-debris", "lat": 30.562287583374044, "lon": -150.77425555177572, "alt_km": 1275.5987942635438, "timestamp": "2025-12-17T23:38:07.248815+00:00", "meta": {"OBJECT_NAME": "COSMOS 2251 DEB", "OBJECT_ID": "1993-036ACR", "EPOCH": "2025-12-15T21:48:13.370976", "MEAN_MOTION": 13.44195012, "ECCENTRICITY": 0.04354662, "INCLINATION": 73.9648, "RA_OF_ASC_NODE": 42.2959, "ARG_OF_PERICENTER": 25.2, "MEAN_ANOMALY": 154.8462, "EPHEMERIS_TYPE": 0, "CLASSIFICATION_TYPE": "U", "NORAD_CAT_ID": 34878, "ELEMENT_SET_NO": 999, "REV_AT_EPOCH": 81315, "BSTAR": 0.00059672813, "MEAN_MOTION_DOT": 5.92e-06, "MEAN_MOTION_DDOT": 0}, "tle": {"line1": "1 34878U 93036ACR 25349.90848809  .00000592  00000+0  59673-3 0  9998", "line2": "2 34878  73.9648  42.2959 0435466  25.2000 154.8462 13.44195012813155"}}, "geometry": {"type": "Point", "coordinates": [-150.77425555177572, 30.562287583374044]}}, {"type": "Feature", "properties": {"norad_id": 34882, "name": "COSMOS 2251 DEB", "group": "cosmos-2251-debris", "lat": 13.336008307194458, "lon": -140.54835346568765, "alt_km": 639.1819331817551, "timestamp": "2025-12-17T23:38:07.248824+00:00", "meta": {"OBJECT_NAME": "COSMOS 2251 DEB", "OBJECT_ID": "1993-036ACV", "EPOCH": "2025-12-17T08:47:19.384512", "MEAN_MOTION": 14.61606047, "ECCENTRICITY": 0.0083046, "INCLINATION": 74.0458, "RA_OF_ASC_NODE": 216.7456, "ARG_OF_PERICENTER": 342.6879, "MEAN_ANOMALY": 17.1458, "EPHEMERIS_TYPE": 0, "CLASSIFICATION_TYPE": "U", "NORAD_CAT_ID": 34882, "ELEMENT_SET_NO": 999, "REV_AT_EPOCH": 88592, "BSTAR": 0.00012629796, "MEAN_MOTION_DOT": 6.26e-06, "MEAN_MOTION_DDOT": 0}, "tle": {"line1": "1 34882U 93036ACV 25351.36619658  .00000626  00000+0  12630-3 0  9994", "line2": "2 34882  74.0458 216.7456 0083046 342.6879  17.1458 14.61606047885929"}}, "geometry": {"type": "Point", "coordinates": [-140.54835346568765, 13.336008307194458]}}, {"type": "Feature", "properties": {"norad_id": 34883, "name": "COSMOS 2251 DEB", "group": "cosmos-2251-debris", "lat": -49.20025896590903, "lon": -107.9031314607859, "alt_km": 659.4741247883176, "timestamp": "2025-12-17T23:38:07.248834+00:00", "meta": {"OBJECT_NAME": "COSMOS 2251 DEB", "OBJECT_ID": "1993-036ACW", "EPOCH": "2025-12-16T03:33:44.508384", "MEAN_MOTION": 14.51615138, "ECCENTRICITY": 0.00951919, "INCLINATION": 74.1965, "RA_OF_ASC_NODE": 56.3649, "ARG_OF_PERICENTER": 240.9605, "MEAN_ANOMALY": 118.1996, "EPHEMERIS_TYPE": 0, "CLASSIFICATION_TYPE": "U", "NORAD_CAT_ID": 34883, "ELEMENT_SET_NO": 999, "REV_AT_EPOCH": 86489, "BSTAR": 0.0030222545, "MEAN_MOTION_DOT": 0.00012841, "MEAN_MOTION_DDOT": 0}, "tle": {"line1": "1 34883U 93036ACW 25350.14843181  .00012841  00000+0  30223-2 0  9999", "line2": "2 34883  74.1965  56.3649 0095191 240.9605 118.1996 14.51615138864899"}}, "geometry": {"type": "Point", "coordinates": [-107.9031314607859, -49.20025896590903]}}, {"type": "Feature", "properties": {"norad_id": 34884, "name": "COSMOS 2251 DEB", "group": "cosmos-2251-debris", "lat": 5.381640944800555, "lon": -135.3145650894599, "alt_km": 599.7817776029306, "timestamp": "2025-12-17T23:38:07.248844+00:00", "meta": {"OBJECT_NAME": "COSMOS 2251 DEB", "OBJECT_ID": "1993-036ACX", "EPOCH": "2025-12-17T13:45:58.248576", "MEAN_MOTION": 14.90284789, "ECCENTRICITY": 0.00025418, "INCLINATION": 74.0177, "RA_OF_ASC_NODE": 47.0563, "ARG_OF_PERICENTER": 57.2515, "MEAN_ANOMALY": 71.7476, "EPHEMERIS_TYPE": 0, "CLASSIFICATION_TYPE": "U", "NORAD_CAT_ID": 34884, "ELEMENT_SET_NO": 999, "REV_AT_EPOCH": 87877, "BSTAR": 0.0017599029, "MEAN_MOTION_DOT": 0.00017103, "MEAN_MOTION_DDOT": 0}, "tle": {"line1": "1 34884U 93036ACX 25351.57359084  .00017103  00000+0  17599-2 0  9999", "line2": "2 34884  74.0177  47.0563 0002541  57.2515  71.7476 14.90284789878778"}}, "geometry": {"type": "Point", "coordinates": [-135.3145650894599, 5.381640944800555]}}, {"type": "Feature", "properties": {"norad_id": 34885, "name": "COSMOS 2251 DEB", "group": "cosmos-2251-debris", "lat": 47.90404189147428, "lon": -168.3736581067768, "alt_km": 725.5296534118988, "timestamp": "2025-12-17T23:38:07.248854+00:00", "meta": {"OBJECT_NAME": "COSMOS 2251 DEB", "OBJECT_ID": "1993-036ACY", "EPOCH": "2025-12-17T15:28:22.251936", "MEAN_MOTION": 14.51527795, "ECCENTRICITY": 0.00151215, "INCLINATION": 74.0297, "RA_OF_ASC_NODE": 173.7862, "ARG_OF_PERICENTER": 259.0589, "MEAN_ANOMALY": 174.9584, "EPHEMERIS_TYPE": 0, "CLASSIFICATION_TYPE": "U", "NORAD_CAT_ID": 34885, "ELEMENT_SET_NO": 999, "REV_AT_EPOCH": 87550, "BSTAR": 0.00051881122, "MEAN_MOTION_DOT": 2.05e-05, "MEAN_MOTION_DDOT": 0}, "tle": {"line1": "1 34885U 93036ACY 25351.64470199  .00002050  00000+0  51881-3 0  9997", "line2": "2 34885  74.0297 173.7862 0015121 259.0589 174.9584 14.51527795875500"}}, "geometry": {"type": "Point", "coordinates": [-168.3736581067768, 47.90404189147428]}}, {"type": "Feature", "properties": {"norad_id": 34886, "name": "COSMOS 2251 DEB", "group": "cosmos-2251-debris", "lat": -13.811410457377459, "lon": 165.5596579399126, "alt_km": 431.43405890859685, "timestamp": "2025-12-17T23:38:07.248864+00:00", "meta": {"OBJECT_NAME": "COSMOS 2251 DEB", "OBJECT_ID": "1993-036ACZ", "EPOCH": "2025-12-13T21:25:05.379168", "MEAN_MOTION": 15.38859949, "ECCENTRICITY": 0.00306549, "INCLINATION": 73.9501, "RA_OF_ASC_NODE": 178.4925, "ARG_OF_PERICENTER": 1.8054, "MEAN_ANOMALY": 358.3257, "EPHEMERIS_TYPE": 0, "CLASSIFICATION_TYPE": "U", "NORAD_CAT_ID": 34886, "ELEMENT_SET_NO": 999, "REV_AT_EPOCH": 63016, "BSTAR": 0.0017695785, "MEAN_MOTION_DOT": 0.00069737, "MEAN_MOTION_DDOT": 0}, "tle": {"line1": "1 34886U 93036ACZ 25347.89242337  .00069737  00000+0  17696-2 0  9991", "line2": "2 34886  73.9501 178.4925 0030654   1.8054 358.3257 15.38859949630168"}}, "geometry": {"type": "Point", "coordinates": [165.5596579399126, -13.811410457377459]}}, {"type": "Feature", "properties": {"norad_id": 34907, "name": "COSMOS 2251 DEB", "group": "cosmos-2251-debris", "lat": 42.10246447226628, "lon": 51.98817472310441, "alt_km": 415.688584177361, "timestamp": "2025-12-17T23:38:07.248874+00:00", "meta": {"OBJECT_NAME": "COSMOS 2251 DEB", "OBJECT_ID": "1993-036ADC", "EPOCH": "2025-12-17T09:28:50.076192", "MEAN_MOTION": 15.47239939, "ECCENTRICITY": 0.00198039, "INCLINATION": 73.9687, "RA_OF_ASC_NODE": 38.2214, "ARG_OF_PERICENTER": 334.3909, "MEAN_ANOMALY": 25.6319, "EPHEMERIS_TYPE": 0, "CLASSIFICATION_TYPE": "U", "NORAD_CAT_ID": 34907, "ELEMENT_SET_NO": 999, "REV_AT_EPOCH": 88045, "BSTAR": 0.0063162764, "MEAN_MOTION_DOT": 0.00338134, "MEAN_MOTION_DDOT": 0}, "tle": {"line1": "1 34907U 93036ADC 25351.39502403  .00338134  00000+0  63163-2 0  9998", "line2": "2 34907  73.9687  38.2214 0019803 334.3909  25.6319 15.47239939880450"}}, "geometry": {"type": "Point", "coordinates": [51.98817472310441, 42.10246447226628]}}, {"type": "Feature", "properties": {"norad_id": 34908, "name": "COSMOS 2251 DEB", "group": "cosmos-2251-debris", "lat": -24.718815235707623, "lon": -158.4203148320205, "alt_km": 800.9895891224496, "timestamp": "2025-12-17T23:38:07.248884+00:00", "meta": {"OBJECT_NAME": "COSMOS 2251 DEB", "OBJECT_ID": "1993-036ADD", "EPOCH": "2025-12-17T07:43:17.668128", "MEAN_MOTION": 14.37411471, "ECCENTRICITY": 0.00402486, "INCLINATION": 74.0581, "RA_OF_ASC_NODE": 15.2366, "ARG_OF_PERICENTER": 29.9101, "MEAN_ANOMALY": 345.9244, "EPHEMERIS_TYPE": 0, "CLASSIFICATION_TYPE": "U", "NORAD_CAT_ID": 34908, "ELEMENT_SET_NO": 999, "REV_AT_EPOCH": 87345, "BSTAR": 0.00043107279, "MEAN_MOTION_DOT": 1.275e-05, "MEAN_MOTION_DDOT": 0}, "tle": {"line1": "1 34908U 93036ADD 25351.32173227  .00001275  00000+0  43107-3 0  9990", "line2": "2 34908  74.0581  15.2366 0040248  29.9101 345.9244 14.37411471873455"}}, "geometry": {"type": "Point", "coordinates": [-158.4203148320205, -24.718815235707623]}}, {"type": "Feature", "properties": {"norad_id": 34909, "name": "COSMOS 2251 DEB", "group": "cosmos-2251-debris", "lat": 21.409772545983106, "lon": 72.71422648224568, "alt_km": 694.6103212806238, "timestamp": "2025-12-17T23:38:07.248894+00:00", "meta": {"OBJECT_NAME": "COSMOS 2251 DEB", "OBJECT_ID": "1993-036ADE", "EPOCH": "2025-12-16T23:09:48.199680", "MEAN_MOTION": 14.77871618, "ECCENTRICITY": 0.00842379, "INCLINATION": 74.015, "RA_OF_ASC_NODE": 68.2645, "ARG_OF_PERICENTER": 203.1131, "MEAN_ANOMALY": 156.6247, "EPHEMERIS_TYPE": 0, "CLASSIFICATION_TYPE": "U", "NORAD_CAT_ID": 34909, "ELEMENT_SET_NO": 999, "REV_AT_EPOCH": 66914, "BSTAR": 0.0004301691, "MEAN_MOTION_DOT": 3.247e-05, "MEAN_MOTION_DDOT": 0}, "tle": {"line1": "1 34909U 93036ADE 25350.96514120  .00003247  00000+0  43017-3 0  9992", "line2": "2 34909  74.0150  68.2645 0084237 203.1131 156.6247 14.77871618669147"}}, "geometry": {"type": "Point", "coordinates": [72.71422648224568, 21.409772545983106]}}]}